{"fetched_at":"2026-03-30T13:17:50Z","count":15418,"tles":[{"name":"STARLINK-11650 [DTC]","line1":"1 63312U 25057F   26087.88137791  .00206359  00000+0  15697-2 0  9995","line2":"2 63312  43.0010 149.0575 0002161  51.2004 308.9056 15.70875744 60227","category":"Starlink"}]}